NORAD_CAT_ID,EPOCH,MEAN_MOTION,ECCENTRICITY,INCLINATION,RA_OF_ASC_NODE,ARG_OF_PERICENTER,MEAN_ANOMALY,APOAPSIS,PERIAPSIS,BSTAR,COUNTRY_CODE,RCS_SIZE,NAME,LINE1,LINE2
31160,2025-08-07T10:14:57.046560,13.99518791,0.0057037,99.1023,276.5715,244.1622,115.3652,936.95,853.978,6.8189e-05,PRC,SMALL,0 FENGYUN 1C DEB,1 31160U 99025BHN 25219.42704915  .00000056  00000-0  68189-4 0  9994,2 31160  99.1023 276.5715 0057037 244.1622 115.3652 13.99518791938953
31161,2025-08-08T18:44:22.843680,14.09067366,0.0068359,98.7612,245.8972,346.5531,13.3816,912.064,813.07,0.00028963,PRC,SMALL,0 FENGYUN 1C DEB,1 31161U 99025BHP 25220.78081995  .00000470  00000-0  28963-3 0  9997,2 31161  98.7612 245.8972 0068359 346.5531  13.3816 14.09067366943282
31165,2025-08-08T21:45:53.904960,14.68574681,0.0071848,98.9037,269.4948,265.5694,274.8477,716.232,615.016,0.00092909,PRC,SMALL,0 FENGYUN 1C DEB,1 31165U 99025BHT 25220.90687390  .00005551  00000-0  92909-3 0  9992,2 31165  98.9037 269.4948 0071848 265.5694 274.8477 14.68574681969060
31168,2025-08-07T13:50:01.107744,14.65598107,0.0112555,98.8779,340.3733,96.2803,265.1232,754.546,595.769,0.00065631,PRC,SMALL,0 FENGYUN 1C DEB,1 31168U 99025BHW 25219.57640171  .00003854  00000-0  65631-3 0  9998,2 31168  98.8779 340.3733 0112555  96.2803 265.1232 14.65598107972576
31169,2025-08-06T00:12:56.573568,14.24878151,0.00600905,99.1735,238.6646,29.3967,331.0568,852.092,765.717,0.0016723746,PRC,SMALL,0 FENGYUN 1C DEB,1 31169U 99025BHX 25218.00898812  .00003933  00000-0  16724-2 0  9999,2 31169  99.1735 238.6646 0060090  29.3967 331.0568 14.24878151552708
31171,2025-08-08T22:35:31.014816,14.31424475,0.016091,98.0078,219.9738,334.4398,55.0021,902.269,671.682,0.0035752,PRC,SMALL,0 FENGYUN 1C DEB,1 31171U 99025BHZ 25220.94133119  .00010906  00000-0  35752-2 0  9990,2 31171  98.0078 219.9738 0160910 334.4398  55.0021 14.31424475940299
31172,2025-08-08T11:44:50.713440,14.31356288,0.014826,98.4255,228.6473,282.4208,76.0419,893.436,680.97,8.9502e-05,PRC,SMALL,0 FENGYUN 1C DEB,1 31172U 99025BJA 25220.48947585  .00000221  00000-0  89502-4 0  9993,2 31172  98.4255 228.6473 0148260 282.4208  76.0419 14.31356288958200
31175,2025-08-08T05:26:11.410944,14.52548047,0.008413,98.3971,219.5806,193.859,166.0296,777.035,657.646,0.0020486,PRC,SMALL,0 FENGYUN 1C DEB,1 31175U 99025BJD 25220.22652096  .00008730  00000-0  20486-2 0  9995,2 31175  98.3971 219.5806 0084130 193.8590 166.0296 14.52548047637981
31177,2025-08-06T17:35:06.160416,13.60827081,0.03063691,98.7539,145.1577,289.0406,97.1661,1259.735,805.645,0.001948553,PRC,SMALL,0 FENGYUN 1C DEB,1 31177U 99025BJF 25218.73271019  .00001972  00000-0  19486-2 0  9991,2 31177  98.7539 145.1577 0306369 289.0406  97.1661 13.60827081644705
31178,2025-08-09T05:31:10.251264,14.20820444,0.0127211,99.5072,213.7928,310.0237,48.983,914.182,730.98,0.0015419,PRC,SMALL,0 FENGYUN 1C DEB,1 31178U 99025BJG 25221.22997976  .00003565  00000-0  15419-2 0  9999,2 31178  99.5072 213.7928 0127211 310.0237  48.9830 14.20820444940459
31179,2025-08-08T07:19:32.706624,13.91485504,0.0216205,99.0314,243.5338,345.5762,13.9288,1081.295,765.568,0.00068205,PRC,SMALL,0 FENGYUN 1C DEB,1 31179U 99025BJH 25220.30523966  .00001000  00000-0  68205-3 0  9996,2 31179  99.0314 243.5338 0216205 345.5762  13.9288 13.91485504601823
31180,2025-08-08T15:23:44.600352,13.70055604,0.0499133,99.2009,356.9632,30.8635,350.0399,1367.609,631.138,0.0001077,PRC,SMALL,0 FENGYUN 1C DEB,1 31180U 99025BJJ 25220.64148843  .00000184  00000-0  10770-3 0  9998,2 31180  99.2009 356.9632 0499133  30.8635 350.0399 13.70055604623407
31181,2025-08-06T13:48:00.198720,14.11376498,0.0049262,98.7875,253.8437,77.3185,74.8766,890.297,819.037,0.00070336,PRC,SMALL,0 FENGYUN 1C DEB,1 31181U 99025BJK 25218.57500230  .00001244  00000-0  70336-3 0  9992,2 31181  98.7875 253.8437 0049262  77.3185  74.8766 14.11376498940001
31182,2025-08-05T12:30:48.348288,14.14309256,0.0023634,98.6693,210.0568,144.643,342.8298,861.735,827.595,0.00028195,PRC,SMALL,0 FENGYUN 1C DEB,1 31182U 99025BJL 25217.52139292  .00000498  00000-0  28195-3 0  9999,2 31182  98.6693 210.0568 0023634 144.6430 342.8298 14.14309256942545
31183,2025-08-09T10:20:54.871296,14.48681422,0.0049787,99.0209,196.3571,121.7919,33.3514,765.349,694.571,0.0011212,PRC,SMALL,0 FENGYUN 1C DEB,1 31183U 99025BJM 25221.43119064  .00004241  00000-0  11212-2 0  9991,2 31183  99.0209 196.3571 0049787 121.7919  33.3514 14.48681422957048
31185,2025-08-06T06:06:23.428512,14.02948293,0.0042666,98.8268,218.55,104.5992,255.9912,914.589,852.623,-2.729e-05,PRC,SMALL,0 FENGYUN 1C DEB,1 31185U 99025BJP 25218.25443783 -.00000085  00000-0 -27290-4 0  9996,2 31185  98.8268 218.5500 0042666 104.5992 255.9912 14.02948293940486
31186,2025-08-09T00:32:58.449408,14.12625631,0.0026675,99.1762,133.344,56.0457,322.4185,869.685,831.121,0.00036527,PRC,SMALL,0 FENGYUN 1C DEB,1 31186U 99025BJQ 25221.02289872  .00000632  00000-0  36527-3 0  9991,2 31186  99.1762 133.3440 0026675  56.0457 322.4185 14.12625631945549
31187,2025-08-08T00:44:59.862624,14.5343585,0.0237268,99.2567,69.6928,244.6996,112.9447,882.735,546.166,0.0016591,PRC,SMALL,0 FENGYUN 1C DEB,1 31187U 99025BJR 25220.03124841  .00009988  00000-0  16591-2 0  9997,2 31187  99.2567  69.6928 0237268 244.6996 112.9447 14.53435850672560
31188,2025-08-07T10:20:50.927136,14.22760343,0.0059512,98.7588,287.9269,257.6742,236.7273,858.849,773.221,0.00094945,PRC,SMALL,0 FENGYUN 1C DEB,1 31188U 99025BJS 25219.43114499  .00002123  00000-0  94945-3 0  9992,2 31188  98.7588 287.9269 0059512 257.6742 236.7273 14.22760343945411
31190,2025-08-08T11:54:53.426016,14.03225349,0.0066731,98.8253,236.9953,251.9664,107.4224,931.102,834.198,0.00038854,PRC,SMALL,0 FENGYUN 1C DEB,1 31190U 99025BJU 25220.49645169  .00000574  00000-0  38854-3 0  9991,2 31190  98.8253 236.9953 0066731 251.9664 107.4224 14.03225349937769
31191,2025-08-08T03:52:41.737152,14.40331814,0.0092617,98.7898,117.6862,210.7268,148.8477,823.492,691.317,0.00018568,PRC,SMALL,0 FENGYUN 1C DEB,1 31191U 99025BJV 25220.16159418  .00000570  00000-0  18568-3 0  9999,2 31191  98.7898 117.6862 0092617 210.7268 148.8477 14.40331814961901
31192,2025-08-05T17:09:43.235136,14.20486747,0.0261163,98.5387,205.4694,118.088,244.6964,1011.795,635.624,0.0002715,PRC,SMALL,0 FENGYUN 1C DEB,1 31192U 99025BJW 25217.71508374  .00000777  00000-0  27150-3 0  9992,2 31192  98.5387 205.4694 0261163 118.0880 244.6964 14.20486747949115
31194,2025-08-09T09:52:11.113536,14.35760009,0.0057474,98.975,105.4235,287.2357,72.2542,813.642,731.446,0.00060335,PRC,SMALL,0 FENGYUN 1C DEB,1 31194U 99025BJY 25221.41123974  .00001730  00000-0  60335-3 0  9997,2 31194  98.9750 105.4235 0057474 287.2357  72.2542 14.35760009953272
31195,2025-08-08T08:44:49.517664,14.07886147,0.0172161,98.7964,256.9635,177.3772,182.834,991.343,741.89,4.5158e-05,PRC,SMALL,0 FENGYUN 1C DEB,1 31195U 99025BJZ 25220.36446201  .00000045  00000-0  45158-4 0  9997,2 31195  98.7964 256.9635 0172161 177.3772 182.8340 14.07886147943202
31196,2025-08-05T18:21:02.761056,14.25031546,0.0057476,98.5336,234.5273,228.6323,130.9906,849.694,767.083,0.00035093,PRC,SMALL,0 FENGYUN 1C DEB,1 31196U 99025BKA 25217.76461529  .00000793  00000-0  35093-3 0  9994,2 31196  98.5336 234.5273 0057476 228.6323 130.9906 14.25031546616582
31198,2025-08-08T14:15:11.083392,13.7547463,0.0203582,98.6032,336.5653,330.1345,28.8314,1129.782,830.186,6.3906e-05,PRC,SMALL,0 FENGYUN 1C DEB,1 31198U 99025BKC 25220.59387828  .00000032  00000-0  63906-4 0  9991,2 31198  98.6032 336.5653 0203582 330.1345  28.8314 13.75474630610195
31199,2025-08-03T21:55:39.224352,14.09863109,0.0062859,98.6989,202.8837,270.5183,120.3287,905.339,814.345,0.00015636,PRC,SMALL,0 FENGYUN 1C DEB,1 31199U 99025BKD 25215.91364843  .00000237  00000-0  15636-3 0  9997,2 31199  98.6989 202.8837 0062859 270.5183 120.3287 14.09863109943167
31201,2025-08-08T20:23:39.198336,14.34372073,0.0144283,99.0199,76.2793,359.8564,10.3269,880.395,673.917,0.00059222,PRC,SMALL,0 FENGYUN 1C DEB,1 31201U 99025BKF 25220.84975924  .00001821  00000-0  59222-3 0  9996,2 31201  99.0199  76.2793 0144283 359.8564  10.3269 14.34372073954465
31202,2025-08-08T10:52:10.838208,14.80403167,0.0072458,96.5898,288.05,241.507,133.0793,678.819,577.288,0.00057085,PRC,SMALL,0 FENGYUN 1C DEB,1 31202U 99025BKG 25220.45290322  .00004519  00000-0  57085-3 0  9998,2 31202  96.5898 288.0500 0072458 241.5070 133.0793 14.80403167972843
31203,2025-08-09T00:41:06.842688,15.27284119,0.0006604,98.9512,65.4326,174.0122,186.1192,488.469,479.406,0.012082,PRC,SMALL,0 FENGYUN 1C DEB,1 31203U 99025BKH 25221.02855142  .00337768  00000-0  12082-1 0  9991,2 31203  98.9512  65.4326 0006604 174.0122 186.1192 15.27284119953009
31205,2025-08-07T12:32:08.672640,14.23835822,0.01620457,99.2328,306.3492,200.6139,158.8451,928.931,695.892,0.00011013796,PRC,SMALL,0 FENGYUN 1C DEB,1 31205U 99025BKK 25219.52232260  .00000238  00000-0  11014-3 0  9990,2 31205  99.2328 306.3492 0162046 200.6139 158.8451 14.23835822954001
31206,2025-08-08T22:48:19.342368,14.39811889,0.0078931,98.8464,124.7642,15.0856,345.2658,815.457,702.787,0.00054857,PRC,SMALL,0 FENGYUN 1C DEB,1 31206U 99025BKL 25220.95022387  .00001737  00000-0  54857-3 0  9994,2 31206  98.8464 124.7642 0078931  15.0856 345.2658 14.39811889960350
31208,2025-08-06T07:58:01.954848,14.5770238,0.0015164,99.2395,347.5739,292.3496,95.5986,711.339,689.87,0.0018018,PRC,SMALL,0 FENGYUN 1C DEB,1 31208U 99025BKN 25218.33196707  .00008190  00000-0  18018-2 0  9991,2 31208  99.2395 347.5739 0015164 292.3496  95.5986 14.57702380957597
31209,2025-08-08T11:07:56.629632,14.40594453,0.0022797,98.8855,310.4484,4.6262,355.5132,772.802,740.272,0.0014687,PRC,SMALL,0 FENGYUN 1C DEB,1 31209U 99025BKP 25220.46384988  .00004651  00000-0  14687-2 0  9995,2 31209  98.8855 310.4484 0022797   4.6262 355.5132 14.40594453629887
